DMSP 5D-2 F14 (USA 131) 
1 24753U 97012A   19064.65341861  .00000007  00000-0  26743-4 0  9997
2 24753  99.0326  70.1258 0009771  96.5314 263.6972 14.15824280131989
NOAA 15                 
1 25338U 98030A   19064.65164592  .00000004  00000-0  20407-4 0  9990
2 25338  98.7560  86.0588 0010471 182.5345 177.5784 14.25896741 82280
DMSP 5D-3 F15 (USA 147) 
1 25991U 99067A   19064.58057824 -.00000106  00000-0 -30696-4 0  9993
2 25991  98.9046  29.0927 0010053   3.6715  86.2797 14.16536271993921
METEOSAT-8 (MSG-1)      
1 27509U 02040B   19064.51033684  .00000129  00000-0  00000+0 0  9990
2 27509   5.9125  55.9876 0001827 325.8310   6.4521  1.00281078 60570
DMSP 5D-3 F16 (USA 172) 
1 28054U 03048A   19064.63820132 -.00000104  00000-0 -31927-4 0  9992
2 28054  98.8546  41.8327 0008396 112.3746 354.9860 14.13698014793513
NOAA 18                 
1 28654U 05018A   19064.65178191  .00000027  00000-0  39721-4 0  9992
2 28654  99.1115 109.9723 0015228 112.5086 247.7699 14.12407555710696
METEOSAT-9 (MSG-2)      
1 28912U 05049B   19064.41091141  .00000007  00000-0  00000+0 0  9997
2 28912   3.4498  71.4445 0000885 347.1902 255.4428  1.00269702 48395
HIMAWARI-7 (MTSAT-2)    
1 28937U 06004A   19064.53092448 -.00000255  00000-0  00000+0 0  9996
2 28937   0.0536 290.8486 0003641  50.4950 157.7054  1.00275501 47673
FORMOSAT-3 FM6          
1 29047U 06011A   19064.87138099  .00000031  00000-0  28245-4 0  9994
2 29047  71.9809 348.3634 0049756 153.9711 206.3943 14.28666508674276
FORMOSAT-3 FM1          
1 29048U 06011B   19064.52685275  .00000052  00000-0  36933-4 0  9996
2 29048  71.9647 260.5257 0042396 110.1778 250.3925 14.28616608676697
FORMOSAT-3 FM5          
1 29049U 06011C   19064.41471692  .00000053  00000-0  36960-4 0  9992
2 29049  72.0192  69.7393 0033783 143.6751 216.6689 14.28700061672467
FORMOSAT-3 FM3          
1 29050U 06011D   19063.94978409  .00000142  00000-0  40147-4 0  9990
2 29050  72.0138 264.8111 0048250 100.4425 260.2170 14.58769281687816
FORMOSAT-3 FM4          
1 29051U 06011E   19064.84423763  .00000053  00000-0  36363-4 0  9995
2 29051  72.0074 331.8074 0067651  15.4218 344.8958 14.28726723675114
FORMOSAT-3 FM2          
1 29052U 06011F   19064.52662603  .00000029  00000-0  27364-4 0  9993
2 29052  72.0347  45.2547 0038083 101.8276 258.7136 14.28824875673396
GOES 13                 
1 29155U 06018A   19064.57229123 -.00000297  00000-0  00000+0 0  9996
2 29155   0.4410 283.0988 0011446 137.3256 248.5141  1.00280321 46837
METOP-A                 
1 29499U 06044A   19064.88662880 -.00000007  00000-0  16412-4 0  9999
2 29499  98.5896 120.9774 0001719 129.3761 337.5749 14.21543428642179
DMSP 5D-3 F17 (USA 191) 
1 29522U 06050A   19064.63650998  .00000014  00000-0  30218-4 0  9990
2 29522  98.8269  82.4661 0011162  76.0336 284.2078 14.14002516636344
FENGYUN 3A              
1 32958U 08026A   19064.68886686  .00000028  00000-0  32489-4 0  9999
2 32958  98.3799  70.6566 0008271 261.0201  99.0037 14.19733271558222
FENGYUN 2E              
1 33463U 08066A   19063.87329025 -.00000215  00000-0  00000+0 0  9992
2 33463   3.3869  69.2626 0004524 265.7411 228.5091  1.00272087 37400
NOAA 19                 
1 33591U 09005A   19064.62869369  .00000025  00000-0  38990-4 0  9994
2 33591  99.1731  53.2474 0013285 316.3532  43.6587 14.12337444519078
GOES 14                 
1 35491U 09033A   19064.48421090 -.00000106  00000-0  00000+0 0  9992
2 35491   0.0482 112.2252 0008569 129.1088 351.5710  1.00271956 35472
METEOR-M 1              
1 35865U 09049A   19064.84140229  .00000012  00000-0  24213-4 0  9998
2 35865  98.4105  67.7926 0003428 110.9792 249.1754 14.22186138491179
DMSP 5D-3 F18 (USA 210) 
1 35951U 09057A   19064.63694472  .00000032  00000-0  39904-4 0  9999
2 35951  98.6182  66.2029 0009935 270.0331  89.9703 14.13176843483645
GOES 15                 
1 36411U 10008A   19064.61999234  .00000043  00000-0  00000+0 0  9993
2 36411   0.0247 248.3027 0002137  17.3972 352.1618  1.00271591 32993
COMS 1                  
1 36744U 10032A   19064.09077271 -.00000358  00000-0  00000+0 0  9999
2 36744   0.0079 140.3625 0000685 278.8906 264.1154  1.00272968 31969
FENGYUN 3B              
1 37214U 10059A   19064.92516586  .00000012  00000-0  29369-4 0  9990
2 37214  98.9865  35.9863 0017269 154.5736 205.6290 14.15908432431238
SUOMI NPP               
1 37849U 11061A   19064.68130817 -.00000072  00000-0 -13646-4 0  9999
2 37849  98.7262   4.3369 0001294 107.5741 252.5536 14.19557978380974
FENGYUN 2F              
1 38049U 12002A   19063.87834993 -.00000371  00000-0  00000+0 0  9990
2 38049   1.0135  80.6566 0001649  63.6746  86.2769  1.00279836 26203
METEOSAT-10 (MSG-3)     
1 38552U 12035B   19064.40535433  .00000048  00000-0  00000+0 0  9992
2 38552   0.9910  11.3960 0000794  54.9132 251.6118  1.00273249 24534
METOP-B                 
1 38771U 12049A   19064.51389497  .00000000  00000-0  20170-4 0  9992
2 38771  98.7179 125.2409 0000315 164.2907 304.8077 14.21482290335250
FENGYUN 3C              
1 39260U 13052A   19064.75208673 -.00000043  00000-0 -32862-6 0  9995
2 39260  98.6183 127.1448 0012202 121.2268 239.0100 14.15861447282157
METEOR-M 2              
1 40069U 14037A   19064.84960270 -.00000039  00000-0  16851-5 0  9999
2 40069  98.5667 113.4888 0005173 190.0342 170.0718 14.20659233241534
HIMAWARI-8              
1 40267U 14060A   19064.53013937 -.00000289  00000-0  00000+0 0  9990
2 40267   0.0248 164.6545 0000987 184.9887 144.8616  1.00269772 16185
FENGYUN 2G              
1 40367U 14090A   19064.09119837 -.00000314  00000-0  00000+0 0  9990
2 40367   0.9972 103.8375 0002867 292.1793 258.9821  1.00266528 15351
METEOSAT-11 (MSG-4)     
1 40732U 15034A   19064.35840191 -.00000018  00000-0  00000+0 0  9999
2 40732   0.9356 225.0226 0001167  90.4222 336.2531  1.00266911 13355
ELEKTRO-L 2             
1 41105U 15074A   19064.15828277 -.00000110  00000-0  00000+0 0  9990
2 41105   0.1231 135.5244 0001864 251.1543 268.9266  1.00271689 11830
HIMAWARI-9              
1 41836U 16064A   19064.53013937 -.00000288  00000-0  00000+0 0  9998
2 41836   0.0425 296.7251 0000899  79.6670 118.1696  1.00270286  8622
GOES 16                 
1 41866U 16071A   19064.54065556 -.00000261  00000-0  00000+0 0  9995
2 41866   0.0428 300.7674 0000640 110.6875 230.9486  1.00271895  8425
FENGYUN 4A              
1 41882U 16077A   19064.52289878 -.00000343  00000-0  00000+0 0  9993
2 41882   0.1188  89.9753 0004198  20.0773 345.8405  1.00270062  8303
CYGFM05                 
1 41884U 16078A   19064.46465653  .00000315  00000-0  18545-4 0  9992
2 41884  34.9564  98.7185 0015813 171.4590 188.6392 15.14319800122814
CYGFM04                 
1 41885U 16078B   19064.46109319  .00000329  00000-0  18977-4 0  9991
2 41885  34.9497  94.4641 0014216 177.5715 182.5067 15.14826064122853
CYGFM02                 
1 41886U 16078C   19064.45422974  .00000325  00000-0  18788-4 0  9992
2 41886  34.9588  95.9177 0014963 174.6734 185.4139 15.14825079122849
CYGFM01                 
1 41887U 16078D   19064.50788168  .00000316  00000-0  18646-4 0  9992
2 41887  34.9532  98.8750 0016293 173.1234 186.9702 15.14139304122813
CYGFM08                 
1 41888U 16078E   19064.23191356  .00000329  00000-0  19165-4 0  9991
2 41888  34.9502  98.3263 0015448 174.4804 185.6080 15.14544790122783
CYGFM06                 
1 41889U 16078F   19064.49639598  .00000325  00000-0  18813-4 0  9990
2 41889  34.9583  94.3256 0013905 175.1933 184.8914 15.14818134122859
CYGFM07                 
1 41890U 16078G   19064.47480516  .00000340  00000-0  19599-4 0  9993
2 41890  34.9521  93.7727 0013663 177.2499 182.8289 15.14818521122853
CYGFM03                 
1 41891U 16078H   19064.20603450  .00000323  00000-0  18725-4 0  9990
2 41891  34.9553  95.5649 0013108 174.2490 185.8374 15.14818530122818
FENGYUN 3D              
1 43010U 17072A   19064.85913081  .00000008  00000-0  24511-4 0  9995
2 43010  98.7041   5.8387 0002138  29.0015 331.1283 14.19715656 67561
NOAA 20                 
1 43013U 17073A   19064.43493802 -.00000001  00000-0  20562-4 0  9993
2 43013  98.7531   4.2346 0000829 103.8082 256.3186 14.19540539 66976
GOES 17                 
1 43226U 18022A   19064.61824762  .00000085  00000-0  00000+0 0  9998
2 43226   0.0339  49.9479 0003270 330.6927 227.7669  1.00272679  3756
FENGYUN 2H              
1 43491U 18050A   19064.08709828 -.00000142  00000-0  00000+0 0  9994
2 43491   1.7481 283.1541 0001880 242.8835 106.9729  1.00272030  2828
METOP-C                 
1 43689U 18087A   19064.18742571 -.00000044  00000-0  00000+0 0  9997
2 43689  98.7179 125.2111 0001424 272.3438  87.7593 14.21479977 16788
GEO-KOMPSAT-2A          
1 43823U 18100A   19064.89151560 -.00000356  00000-0  00000+0 0  9999
2 43823   0.0090 264.8854 0001882 151.4574 196.1860  1.00271277   989
